[{"OBJECT_NAME":"STARLINK-4022","OBJECT_ID":"2022-052AH","EPOCH":"2025-08-28T18:01:18.939360","MEAN_MOTION":15.08839868,"ECCENTRICITY":0.00012403,"INCLINATION":53.2177,"RA_OF_ASC_NODE":55.2172,"ARG_OF_PERICENTER":86.7268,"MEAN_ANOMALY":273.3866,"EPHEMERIS_TYPE":0,"CLASSIFICATION_TYPE":"U","NORAD_CAT_ID":52629,"ELEMENT_SET_NO":999,"REV_AT_EPOCH":18186,"BSTAR":2.7688654e-5,"MEAN_MOTION_DOT":1.53e-6,"MEAN_MOTION_DDOT":0},{"OBJECT_NAME":"STARLINK-3989","OBJECT_ID":"2022-052AJ","EPOCH":"2025-08-28T18:22:30.805248","MEAN_MOTION":15.08840245,"ECCENTRICITY":0.00012445,"INCLINATION":53.2183,"RA_OF_ASC_NODE":55.1928,"ARG_OF_PERICENTER":90.4469,"MEAN_ANOMALY":269.6666,"EPHEMERIS_TYPE":0,"CLASSIFICATION_TYPE":"U","NORAD_CAT_ID":52630,"ELEMENT_SET_NO":999,"REV_AT_EPOCH":18186,"BSTAR":3.4564533e-5,"MEAN_MOTION_DOT":2.62e-6,"MEAN_MOTION_DDOT":0},{"OBJECT_NAME":"STARLINK-3794","OBJECT_ID":"2022-052AK","EPOCH":"2025-08-28T18:02:42.086400","MEAN_MOTION":15.08841609,"ECCENTRICITY":0.00013011,"INCLINATION":53.218,"RA_OF_ASC_NODE":55.26,"ARG_OF_PERICENTER":86.4895,"MEAN_ANOMALY":273.6246,"EPHEMERIS_TYPE":0,"CLASSIFICATION_TYPE":"U","NORAD_CAT_ID":52631,"ELEMENT_SET_NO":999,"REV_AT_EPOCH":18187,"BSTAR":3.8255754e-5,"MEAN_MOTION_DOT":3.21e-6,"MEAN_MOTION_DDOT":0},{"OBJECT_NAME":"STARLINK-3995","OBJECT_ID":"2022-052AL","EPOCH":"2025-08-28T18:17:14.031744","MEAN_MOTION":15.08819317,"ECCENTRICITY":0.00012241,"INCLINATION":53.2167,"RA_OF_ASC_NODE":55.2084,"ARG_OF_PERICENTER":54.2566,"MEAN_ANOMALY":305.854,"EPHEMERIS_TYPE":0,"CLASSIFICATION_TYPE":"U","NORAD_CAT_ID":52632,"ELEMENT_SET_NO":999,"REV_AT_EPOCH":18187,"BSTAR":0.00042744894,"MEAN_MOTION_DOT":6.518e-5,"MEAN_MOTION_DDOT":0},{"OBJECT_NAME":"STARLINK-3994","OBJECT_ID":"2022-052AM","EPOCH":"2025-08-28T19:20:48.736032","MEAN_MOTION":15.08837133,"ECCENTRICITY":0.00012484,"INCLINATION":53.2174,"RA_OF_ASC_NODE":55.0075,"ARG_OF_PERICENTER":83.6577,"MEAN_ANOMALY":276.4557,"EPHEMERIS_TYPE":0,"CLASSIFICATION_TYPE":"U","NORAD_CAT_ID":52633,"ELEMENT_SET_NO":999,"REV_AT_EPOCH":18188,"BSTAR":8.7105693e-5,"MEAN_MOTION_DOT":1.099e-5,"MEAN_MOTION_DDOT":0},{"OBJECT_NAME":"STARLINK-3974","OBJECT_ID":"2022-052AN","EPOCH":"2025-08-28T18:06:38.451744","MEAN_MOTION":15.08834849,"ECCENTRICITY":0.00012644,"INCLINATION":53.2192,"RA_OF_ASC_NODE":55.2616,"ARG_OF_PERICENTER":118.2444,"MEAN_ANOMALY":241.8676,"EPHEMERIS_TYPE":0,"CLASSIFICATION_TYPE":"U","NORAD_CAT_ID":52634,"ELEMENT_SET_NO":999,"REV_AT_EPOCH":18186,"BSTAR":-0.00013917569,"MEAN_MOTION_DOT":-2.502e-5,"MEAN_MOTION_DDOT":0},{"OBJECT_NAME":"STARLINK-3978","OBJECT_ID":"2022-052AP","EPOCH":"2025-08-28T17:20:15.313344","MEAN_MOTION":15.08839149,"ECCENTRICITY":0.00013163,"INCLINATION":53.2175,"RA_OF_ASC_NODE":45.384,"ARG_OF_PERICENTER":84.9528,"MEAN_ANOMALY":275.1615,"EPHEMERIS_TYPE":0,"CLASSIFICATION_TYPE":"U","NORAD_CAT_ID":52635,"ELEMENT_SET_NO":999,"REV_AT_EPOCH":18200,"BSTAR":1.5174585e-5,"MEAN_MOTION_DOT":-4.6e-7,"MEAN_MOTION_DDOT":0},{"OBJECT_NAME":"STARLINK-3967","OBJECT_ID":"2022-052AQ","EPOCH":"2025-08-28T17:56:01.463424","MEAN_MOTION":15.08835882,"ECCENTRICITY":0.00012683,"INCLINATION":53.2176,"RA_OF_ASC_NODE":55.2743,"ARG_OF_PERICENTER":89.1088,"MEAN_ANOMALY":271.005,"EPHEMERIS_TYPE":0,"CLASSIFICATION_TYPE":"U","NORAD_CAT_ID":52636,"ELEMENT_SET_NO":999,"REV_AT_EPOCH":18186,"BSTAR":2.3267e-7,"MEAN_MOTION_DOT":-2.84e-6,"MEAN_MOTION_DDOT":0},{"OBJECT_NAME":"STARLINK-3961","OBJECT_ID":"2022-052AR","EPOCH":"2025-08-28T18:50:20.321952","MEAN_MOTION":15.08842309,"ECCENTRICITY":0.00012415,"INCLINATION":53.2184,"RA_OF_ASC_NODE":45.1051,"ARG_OF_PERICENTER":81.7016,"MEAN_ANOMALY":278.4117,"EPHEMERIS_TYPE":0,"CLASSIFICATION_TYPE":"U","NORAD_CAT_ID":52637,"ELEMENT_SET_NO":999,"REV_AT_EPOCH":18281,"BSTAR":5.595504e-5,"MEAN_MOTION_DOT":6.03e-6,"MEAN_MOTION_DDOT":0},{"OBJECT_NAME":"STARLINK-3941","OBJECT_ID":"2022-052AS","EPOCH":"2025-08-28T19:26:06.648288","MEAN_MOTION":15.0883849,"ECCENTRICITY":0.00012672,"INCLINATION":53.217,"RA_OF_ASC_NODE":54.9899,"ARG_OF_PERICENTER":87.6889,"MEAN_ANOMALY":272.4248,"EPHEMERIS_TYPE":0,"CLASSIFICATION_TYPE":"U","NORAD_CAT_ID":52638,"ELEMENT_SET_NO":999,"REV_AT_EPOCH":18268,"BSTAR":4.9392282e-5,"MEAN_MOTION_DOT":4.98e-6,"MEAN_MOTION_DDOT":0},{"OBJECT_NAME":"STARLINK-3968","OBJECT_ID":"2022-052AT","EPOCH":"2025-08-28T18:34:26.624064","MEAN_MOTION":15.08841414,"ECCENTRICITY":0.00012857,"INCLINATION":53.2189,"RA_OF_ASC_NODE":45.1545,"ARG_OF_PERICENTER":91.7474,"MEAN_ANOMALY":268.3665,"EPHEMERIS_TYPE":0,"CLASSIFICATION_TYPE":"U","NORAD_CAT_ID":52639,"ELEMENT_SET_NO":999,"REV_AT_EPOCH":18281,"BSTAR":3.3338983e-5,"MEAN_MOTION_DOT":2.43e-6,"MEAN_MOTION_DDOT":0},{"OBJECT_NAME":"STARLINK-3977","OBJECT_ID":"2022-052AU","EPOCH":"2025-08-28T17:25:33.755232","MEAN_MOTION":15.08835999,"ECCENTRICITY":0.00012947,"INCLINATION":53.217,"RA_OF_ASC_NODE":45.3946,"ARG_OF_PERICENTER":87.4569,"MEAN_ANOMALY":272.6571,"EPHEMERIS_TYPE":0,"CLASSIFICATION_TYPE":"U","NORAD_CAT_ID":52640,"ELEMENT_SET_NO":999,"REV_AT_EPOCH":18199,"BSTAR":-4.3382174e-5,"MEAN_MOTION_DOT":-9.78e-6,"MEAN_MOTION_DDOT":0},{"OBJECT_NAME":"STARLINK-3991","OBJECT_ID":"2022-052AV","EPOCH":"2025-08-28T17:21:40.096800","MEAN_MOTION":15.08839682,"ECCENTRICITY":0.0001277,"INCLINATION":53.2178,"RA_OF_ASC_NODE":45.5812,"ARG_OF_PERICENTER":84.7699,"MEAN_ANOMALY":275.3439,"EPHEMERIS_TYPE":0,"CLASSIFICATION_TYPE":"U","NORAD_CAT_ID":52641,"ELEMENT_SET_NO":999,"REV_AT_EPOCH":18200,"BSTAR":1.3132563e-5,"MEAN_MOTION_DOT":-7.9e-7,"MEAN_MOTION_DDOT":0},{"OBJECT_NAME":"STARLINK-3971","OBJECT_ID":"2022-052AW","EPOCH":"2025-08-28T18:45:02.471040","MEAN_MOTION":15.08840955,"ECCENTRICITY":0.00014324,"INCLINATION":53.2183,"RA_OF_ASC_NODE":45.1202,"ARG_OF_PERICENTER":69.9424,"MEAN_ANOMALY":290.1722,"EPHEMERIS_TYPE":0,"CLASSIFICATION_TYPE":"U","NORAD_CAT_ID":52642,"ELEMENT_SET_NO":999,"REV_AT_EPOCH":18200,"BSTAR":2.0644066e-5,"MEAN_MOTION_DOT":4.1e-7,"MEAN_MOTION_DDOT":0},{"OBJECT_NAME":"STARLINK-3963","OBJECT_ID":"2022-052AX","EPOCH":"2025-08-28T18:09:19.373472","MEAN_MOTION":15.08834734,"ECCENTRICITY":0.0001173,"INCLINATION":53.2187,"RA_OF_ASC_NODE":45.2037,"ARG_OF_PERICENTER":85.182,"MEAN_ANOMALY":274.9306,"EPHEMERIS_TYPE":0,"CLASSIFICATION_TYPE":"U","NORAD_CAT_ID":52643,"ELEMENT_SET_NO":999,"REV_AT_EPOCH":18200,"BSTAR":3.3188844e-5,"MEAN_MOTION_DOT":2.4e-6,"MEAN_MOTION_DDOT":0},{"OBJECT_NAME":"STARLINK-3985","OBJECT_ID":"2022-052AY","EPOCH":"2025-08-28T15:28:56.199360","MEAN_MOTION":15.08859569,"ECCENTRICITY":0.00011183,"INCLINATION":53.2184,"RA_OF_ASC_NODE":45.7318,"ARG_OF_PERICENTER":94.0937,"MEAN_ANOMALY":266.0183,"EPHEMERIS_TYPE":0,"CLASSIFICATION_TYPE":"U","NORAD_CAT_ID":52644,"ELEMENT_SET_NO":999,"REV_AT_EPOCH":18198,"BSTAR":0.00023297877,"MEAN_MOTION_DOT":3.424e-5,"MEAN_MOTION_DDOT":0}]
