STARLINK-4022           
1 52629U 22052AH  25240.75091365  .00000153  00000+0  27689-4 0  9998
2 52629  53.2177  55.2172 0001240  86.7268 273.3866 15.08839868181862
STARLINK-3989           
1 52630U 22052AJ  25240.76563432  .00000262  00000+0  34565-4 0  9992
2 52630  53.2183  55.1928 0001244  90.4469 269.6666 15.08840245181865
STARLINK-3794           
1 52631U 22052AK  25240.75187600  .00000321  00000+0  38256-4 0  9998
2 52631  53.2180  55.2600 0001301  86.4895 273.6246 15.08841609181878
STARLINK-3995           
1 52632U 22052AL  25240.76196796  .00006518  00000+0  42745-3 0  9997
2 52632  53.2167  55.2084 0001224  54.2566 305.8540 15.08819317181878
STARLINK-3994           
1 52633U 22052AM  25240.80611963  .00001099  00000+0  87106-4 0  9991
2 52633  53.2174  55.0075 0001248  83.6577 276.4557 15.08837133181887
STARLINK-3974           
1 52634U 22052AN  25240.75461171 -.00002502  00000+0 -13918-3 0  9991
2 52634  53.2192  55.2616 0001264 118.2444 241.8676 15.08834849181864
STARLINK-3978           
1 52635U 22052AP  25240.72239946 -.00000046  00000+0  15175-4 0  9990
2 52635  53.2175  45.3840 0001316  84.9528 275.1615 15.08839149182003
STARLINK-3967           
1 52636U 22052AQ  25240.74723916 -.00000284  00000+0  23267-6 0  9995
2 52636  53.2176  55.2743 0001268  89.1088 271.0050 15.08835882181862
STARLINK-3961           
1 52637U 22052AR  25240.78495743  .00000603  00000+0  55955-4 0  9995
2 52637  53.2184  45.1051 0001241  81.7016 278.4117 15.08842309182815
STARLINK-3941           
1 52638U 22052AS  25240.80979917  .00000498  00000+0  49392-4 0  9999
2 52638  53.2170  54.9899 0001267  87.6889 272.4248 15.08838490182680
STARLINK-3968           
1 52639U 22052AT  25240.77391926  .00000243  00000+0  33339-4 0  9996
2 52639  53.2189  45.1545 0001285  91.7474 268.3665 15.08841414182819
STARLINK-3977           
1 52640U 22052AU  25240.72608513 -.00000978  00000+0 -43382-4 0  9992
2 52640  53.2170  45.3946 0001294  87.4569 272.6571 15.08835999181998
STARLINK-3991           
1 52641U 22052AV  25240.72338075 -.00000079  00000+0  13133-4 0  9998
2 52641  53.2178  45.5812 0001277  84.7699 275.3439 15.08839682182005
STARLINK-3971           
1 52642U 22052AW  25240.78127860  .00000041  00000+0  20644-4 0  9996
2 52642  53.2183  45.1202 0001432  69.9424 290.1722 15.08840955182000
STARLINK-3963           
1 52643U 22052AX  25240.75647423  .00000240  00000+0  33189-4 0  9995
2 52643  53.2187  45.2037 0001173  85.1820 274.9306 15.08834734182000
STARLINK-3985           
1 52644U 22052AY  25240.64509490  .00003424  00000+0  23298-3 0  9991
2 52644  53.2184  45.7318 0001118  94.0937 266.0183 15.08859569181986
